{
  "norad_id": 40079,
  "name": "O3B FM3",
  "history": [
    {
      "epoch": "2026-03-27T08:24:51.210144",
      "apogee_km": 8067.1396846189355,
      "perigee_km": 8064.637979344835,
      "latitude_deg": 0.04402827907600542,
      "longitude_deg": -74.4430998400785,
      "semi_major_axis_km": 14444.025831981886,
      "eccentricity": 8.66e-05,
      "inclination_deg": 0.0529,
      "raan_deg": 354.5796,
      "arg_perigee_deg": 77.5671,
      "mean_anomaly_deg": 287.8583,
      "mean_motion_rev_day": 5.00115572
    }
  ]
}